NORAD_CAT_ID,OBJECT_NAME,OBJECT_TYPE,EPOCH,MEAN_MOTION,ECCENTRICITY,INCLINATION,RA_OF_ASC_NODE,ARG_OF_PERICENTER,MEAN_ANOMALY,BSTAR,MEAN_MOTION_DOT,MEAN_MOTION_DDOT,TLE_LINE0,TLE_LINE1,TLE_LINE2,SEMIMAJOR_AXIS,PERIOD,APOGEE,PERIGEE,DECAYED
52484.0,STARLINK-3887,PAYLOAD,2024-02-26 12:53:17,15.08830668,0.0001626,53.2177,150.7744,105.8772,254.24,-2.292e-05,-6.53e-06,0.0,0 STARLINK-3887,1 52484U 22049AK  24057.53701287 -.00000653  00000-0 -22920-4 0  9996,2 52484  53.2177 150.7744 0001626 105.8772 254.2400 15.08830668100219,6917.909,95.438,540.899,538.649,0.0
52484.0,STARLINK-3887,PAYLOAD,2024-02-26 16:04:04,15.08832753,0.0001532,53.2176,150.1786,98.9003,261.2162,-7.1026e-06,-4.01e-06,0.0,0 STARLINK-3887,1 52484U 22049AK  24057.66949217 -.00000401  00000-0 -71026-5 0  9990,2 52484  53.2176 150.1786 0001532  98.9003 261.2162 15.08832753100235,6917.903,95.438,540.827,538.708,0.0
52484.0,STARLINK-3887,PAYLOAD,2024-02-27 12:44:00,15.08890587,0.0001304,53.2173,146.3127,95.7403,264.3738,0.00034601,5.231e-05,0.0,0 STARLINK-3887,1 52484U 22049AK  24058.53056342  .00005231  00000-0  34601-3 0  9995,2 52484  53.2173 146.3127 0001304  95.7403 264.3738 15.08890587100528,6917.726,95.434,540.493,538.689,0.0
52484.0,STARLINK-3887,PAYLOAD,2024-02-27 22:16:19,15.08877966,8.59e-05,53.2172,144.5307,90.0431,270.066,0.00018469,2.656e-05,0.0,0 STARLINK-3887,1 52484U 22049AK  24058.92800760  .00002656  00000-0  18469-3 0  9991,2 52484  53.2172 144.5307 0000859  90.0431 270.0660 15.08877966100423,6917.764,95.435,540.224,539.035,0.0
52484.0,STARLINK-3887,PAYLOAD,2024-02-28 04:37:56,15.0881348,0.0001804,53.2174,143.34,91.1528,268.9671,-1.1458e-05,-4.7e-06,0.0,0 STARLINK-3887,1 52484U 22049AK  24059.19301968 -.00000470  00000-0 -11458-4 0  9993,2 52484  53.2174 143.3400 0001804  91.1528 268.9671 15.08813480100627,6917.961,95.439,541.074,538.578,0.0
52484.0,STARLINK-3887,PAYLOAD,2024-02-28 12:34:52,15.08819137,0.0001535,53.2178,141.8554,92.3258,267.791,-5.2108e-06,-3.71e-06,0.0,0 STARLINK-3887,1 52484U 22049AK  24059.52422088 -.00000371  00000-0 -52108-5 0  9995,2 52484  53.2178 141.8554 0001535  92.3258 267.7910 15.08819137100514,6917.944,95.439,540.871,538.747,0.0
52484.0,STARLINK-3887,PAYLOAD,2024-02-29 04:28:43,15.08821405,0.0001461,53.2171,138.8826,88.2322,271.8837,-0.00017385,-3.052e-05,0.0,0 STARLINK-3887,1 52484U 22049AK  24060.18661731 -.00003052  00000-0 -17385-3 0  9994,2 52484  53.2171 138.8826 0001461  88.2322 271.8837 15.08821405100772,6917.937,95.439,540.813,538.792,0.0
52484.0,STARLINK-3887,PAYLOAD,2024-02-29 12:25:38,15.08841541,0.0001667,53.2166,137.3952,91.5389,268.5794,-5.7095e-05,-1.197e-05,0.0,0 STARLINK-3887,1 52484U 22049AK  24060.51780711 -.00001197  00000-0 -57095-4 0  9992,2 52484  53.2166 137.3952 0001667  91.5389 268.5794 15.08841541100822,6917.876,95.437,540.894,538.587,0.0
52484.0,STARLINK-3887,PAYLOAD,2024-02-29 14:01:01,15.08844677,0.0001695,53.2167,137.0979,95.2598,264.8587,1.0317e-05,-1.24e-06,0.0,0 STARLINK-3887,1 52484U 22049AK  24060.58404586 -.00000124  00000-0  10317-4 0  9996,2 52484  53.2167 137.0979 0001695  95.2598 264.8587 15.08844677100678,6917.866,95.437,540.904,538.559,0.0
52484.0,STARLINK-3887,PAYLOAD,2024-02-29 21:57:57,15.08840092,0.0001799,53.2165,135.6113,87.5116,272.6082,0.00010208,1.337e-05,0.0,0 STARLINK-3887,1 52484U 22049AK  24060.91525007  .00001337  00000-0  10208-3 0  9999,2 52484  53.2165 135.6113 0001799  87.5116 272.6082 15.08840092100725,6917.88,95.438,540.99,538.501,0.0
52484.0,STARLINK-3887,PAYLOAD,2024-03-01 12:16:25,15.08855262,0.0001666,53.2149,132.9337,78.5988,281.5192,0.00067058,0.00010405,0.0,0 STARLINK-3887,1 52484U 22049AK  24061.51141011  .00010405  00000-0  67058-3 0  9996,2 52484  53.2149 132.9337 0001666  78.5988 281.5192 15.08855262100811,6917.834,95.437,540.851,538.546,0.0
52484.0,STARLINK-3887,PAYLOAD,2024-03-02 12:07:13,15.08840583,0.0001891,53.2159,128.4729,72.3942,287.7256,0.00015741,2.218e-05,0.0,0 STARLINK-3887,1 52484U 22049AK  24062.50501631  .00002218  00000-0  15741-3 0  9999,2 52484  53.2159 128.4729 0001891  72.3942 287.7256 15.08840583101123,6917.879,95.438,541.052,538.435,0.0
52484.0,STARLINK-3887,PAYLOAD,2024-03-03 13:33:23,15.08854846,0.0001634,53.2147,123.7115,96.2787,263.8392,0.00051205,7.874e-05,0.0,0 STARLINK-3887,1 52484U 22049AK  24063.56485012  .00007874  00000-0  51205-3 0  9998,2 52484  53.2147 123.7115 0001634  96.2787 263.8392 15.08854846101127,6917.835,95.437,540.83,538.57,0.0
52484.0,STARLINK-3887,PAYLOAD,2024-03-04 10:13:23,15.08856048,0.000173,53.2163,119.8469,83.1736,276.9453,0.000355,5.369e-05,0.0,0 STARLINK-3887,1 52484U 22049AK  24064.42596679  .00005369  00000-0  35500-3 0  9993,2 52484  53.2163 119.8469 0001730  83.1736 276.9453 15.08856048101410,6917.831,95.437,540.893,538.5,0.0
52484.0,STARLINK-3887,PAYLOAD,2024-03-05 03:42:38,15.08835111,0.0001728,53.216,116.5761,89.5798,270.5392,-0.00012871,-2.336e-05,0.0,0 STARLINK-3887,1 52484U 22049AK  24065.15461241 -.00002336  00000-0 -12871-3 0  9999,2 52484  53.2160 116.5761 0001728  89.5798 270.5392 15.08835111101523,6917.895,95.438,540.956,538.565,0.0
52484.0,STARLINK-3887,PAYLOAD,2024-03-05 13:14:58,15.08824365,0.000162,53.2161,114.7914,89.105,271.0128,-0.00023631,-4.045e-05,0.0,0 STARLINK-3887,1 52484U 22049AK  24065.55206037 -.00004045  00000-0 -23631-3 0  9998,2 52484  53.2161 114.7914 0001620  89.1050 271.0128 15.08824365101423,6917.928,95.439,540.914,538.672,0.0
52484.0,STARLINK-3887,PAYLOAD,2024-03-06 03:33:25,15.08840871,0.0001471,53.2166,112.1162,99.0247,261.0912,2.5553e-05,1.19e-06,0.0,0 STARLINK-3887,1 52484U 22049AK  24066.14821714  .00000119  00000-0  25553-4 0  9991,2 52484  53.2166 112.1162 0001471  99.0247 261.0912 15.08840871101674,6917.878,95.437,540.76,538.725,0.0
52484.0,STARLINK-3887,PAYLOAD,2024-03-06 09:54:58,15.08848538,0.0001592,53.2164,110.9278,101.132,258.9851,0.00033006,4.97e-05,0.0,0 STARLINK-3887,1 52484U 22049AK  24066.41317537  .00004970  00000-0  33006-3 0  9994,2 52484  53.2164 110.9278 0001592 101.1320 258.9851 15.08848538101559,6917.854,95.437,540.821,538.618,0.0
52484.0,STARLINK-3887,PAYLOAD,2024-03-07 03:24:13,15.08840332,0.0001772,53.2163,107.6566,106.6626,253.4561,0.00020667,3.003e-05,0.0,0 STARLINK-3887,1 52484U 22049AK  24067.14182037  .00003003  00000-0  20667-3 0  9995,2 52484  53.2163 107.6566 0001772 106.6626 253.4561 15.08840332101822,6917.879,95.438,540.97,538.519,0.0
52484.0,STARLINK-3887,PAYLOAD,2024-03-07 09:45:45,15.0884085,0.0001638,53.2165,106.4683,99.9207,260.197,0.00014455,2.013e-05,0.0,0 STARLINK-3887,1 52484U 22049AK  24067.40678064  .00002013  00000-0  14455-3 0  9992,2 52484  53.2165 106.4683 0001638  99.9207 260.1970 15.08840850101702,6917.878,95.438,540.876,538.61,0.0
52484.0,STARLINK-3887,PAYLOAD,2024-03-08 09:36:32,15.08846709,0.0001593,53.2163,102.0077,99.3787,260.7385,6.931e-05,8.15e-06,0.0,0 STARLINK-3887,1 52484U 22049AK  24068.40037671  .00000815  00000-0  69310-4 0  9995,2 52484  53.2163 102.0077 0001593  99.3787 260.7385 15.08846709102016,6917.86,95.437,540.827,538.623,0.0
52484.0,STARLINK-3887,PAYLOAD,2024-03-08 19:08:51,15.0884935,0.0001419,53.2164,100.2223,97.4481,262.6672,1.9761e-05,2.7e-07,0.0,0 STARLINK-3887,1 52484U 22049AK  24068.79781682  .00000027  00000-0  19761-4 0  9995,2 52484  53.2164 100.2223 0001419  97.4481 262.6672 15.08849350101910,6917.852,95.437,540.698,538.735,0.0
52484.0,STARLINK-3887,PAYLOAD,2024-03-09 11:02:42,15.08847812,0.0001529,53.2167,97.2486,96.2898,263.8268,0.00014816,2.071e-05,0.0,0 STARLINK-3887,1 52484U 22049AK  24069.46021607  .00002071  00000-0  14816-3 0  9990,2 52484  53.2167  97.2486 0001529  96.2898 263.8268 15.08847812102174,6917.857,95.437,540.779,538.664,0.0
52484.0,STARLINK-3887,PAYLOAD,2024-03-09 18:59:38,15.08845018,0.000153,53.217,95.759,87.392,272.7248,-3.0225e-06,-3.36e-06,0.0,0 STARLINK-3887,1 52484U 22049AK  24069.79141949 -.00000336  00000-0 -30225-5 0  9996,2 52484  53.2170  95.7590 0001530  87.3920 272.7248 15.08845018102067,6917.865,95.437,540.788,538.672,0.0
52484.0,STARLINK-3887,PAYLOAD,2024-03-10 09:18:06,15.08843652,0.0001655,53.2172,93.0824,104.006,256.1116,2.1585e-05,5.6e-07,0.0,0 STARLINK-3887,1 52484U 22049AK  24070.38758038  .00000056  00000-0  21585-4 0  9991,2 52484  53.2172  93.0824 0001655 104.0060 256.1116 15.08843652102152,6917.869,95.437,540.879,538.589,0.0
52484.0,STARLINK-3887,PAYLOAD,2024-03-11 01:11:58,15.08840895,0.0001471,53.2172,90.1077,95.5764,264.5396,8.7587e-05,1.106e-05,0.0,0 STARLINK-3887,1 52484U 22049AK  24071.04997961  .00001106  00000-0  87587-4 0  9996,2 52484  53.2172  90.1077 0001471  95.5764 264.5396 15.08840895102419,6917.878,95.437,540.76,538.725,0.0
52484.0,STARLINK-3887,PAYLOAD,2024-03-11 07:33:30,15.08841678,0.0001146,53.2167,88.9214,101.5782,258.5339,0.00018742,2.696e-05,0.0,0 STARLINK-3887,1 52484U 22049AK  24071.31493626  .00002696  00000-0  18742-3 0  9996,2 52484  53.2167  88.9214 0001146 101.5782 258.5339 15.08841678102294,6917.875,95.437,540.533,538.947,0.0
52484.0,STARLINK-3887,PAYLOAD,2024-03-12 04:13:32,15.0882576,8.54e-05,53.2167,85.0549,107.1591,252.9494,0.00018484,2.654e-05,0.0,0 STARLINK-3887,1 52484U 22049AK  24072.17606508  .00002654  00000-0  18484-3 0  9993,2 52484  53.2167  85.0549 0000854 107.1591 252.9494 15.08825760102584,6917.924,95.438,540.38,539.198,0.0
52484.0,STARLINK-3887,PAYLOAD,2024-03-12 10:35:04,15.08838295,0.000157,53.2171,83.8652,98.632,261.485,4.3659e-05,4.07e-06,0.0,0 STARLINK-3887,1 52484U 22049AK  24072.44102212  .00000407  00000-0  43659-4 0  9993,2 52484  53.2171  83.8652 0001570  98.6320 261.4850 15.08838295102623,6917.886,95.438,540.837,538.664,0.0
52484.0,STARLINK-3887,PAYLOAD,2024-03-13 05:39:41,15.08849447,0.000162,53.2169,80.296,101.5903,258.5271,6.1036e-05,6.84e-06,0.0,0 STARLINK-3887,1 52484U 22049AK  24073.23589391  .00000684  00000-0  61036-4 0  9994,2 52484  53.2169  80.2960 0001620 101.5903 258.5271 15.08849447102748,6917.852,95.437,540.837,538.596,0.0
